*******************************************************************************
Ephemeris / WWW_USER Mon Mar 24 08:34:28 2025 Pasadena, USA      / Horizons    
*******************************************************************************
Target body name: (2018 WD2)                      {source: JPL#7}
Center body name: Earth (399)                     {source: DE441}
Center-site name: Mauna Kea
*******************************************************************************
Start time      : A.D. 2018-Nov-11 03:53:00.0000 UT      
Stop  time      : A.D. 2018-Nov-11 16:18:00.0000 UT      
Step-size       : 1 minutes
*******************************************************************************
Target pole/equ : undefined
Target radii    : undefined                                                    
Center geodetic : 204.5278, 19.8260847, 4.21024   {E-lon(deg),Lat(deg),Alt(km)}
Center cylindric: 204.5278, 6006.35451, 2151.0229 {E-lon(deg),Dxy(km),Dz(km)}
Center pole/equ : ITRF93                          {East-longitude positive}
Center radii    : 6378.137, 6378.137, 6356.752 km {Equator_a, b, pole_c}       
Target primary  : Sun
Vis. interferer : MOON (R_eq= 1737.400) km        {source: DE441}
Rel. light bend : Sun                             {source: DE441}
Rel. lght bnd GM: 1.3271E+11 km^3/s^2                                          
Small-body perts: Yes                             {source: SB441-N16}
Atmos refraction: NO (AIRLESS)
RA format       : HMS
Time format     : CAL 
Calendar mode   : Mixed Julian/Gregorian
RTS-only print  : NO       
EOP file        : eop.250321.p250617                                           
EOP coverage    : DATA-BASED 1962-JAN-20 TO 2025-MAR-21. PREDICTS-> 2025-JUN-16
Units conversion: 1 au= 149597870.700 km, c= 299792.458 km/s, 1 day= 86400.0 s 
Table cut-offs 1: Elevation (-90.0deg=NO ),Airmass (>38.000=NO), Daylight (YES)
Table cut-offs 2: Solar elongation (  0.0,180.0=NO ),Local Hour Angle( 0.0=NO )
Table cut-offs 3: RA/DEC angular rate (     0.0=NO )                           
*******************************************************************************
Initial IAU76/J2000 heliocentric ecliptic osculating elements (au, days, deg.):
  EPOCH=  2458442.5 ! 2018-Nov-20.00 (TDB)         Residual RMS= .32422        
   EC= .524986067713519    QR= .9778174985080528   TP= 2458471.2675125618      
   OM= 251.0855257113189   W=  198.8561547827716   IN= 2.860917524648221       
  Equivalent ICRF heliocentric cartesian coordinates (au, au/d):
   X= 5.933978759455335E-01  Y= 7.796199626272187E-01  Z= 3.534710331364960E-01
  VX=-1.894544763705440E-02 VY= 7.774789113426014E-03 VZ= 2.252803318104249E-03
Asteroid physical parameters (km, seconds, rotational period in hours):        
   GM= n.a.                RAD= n.a.               ROTPER= n.a.                
   H= 26.2                 G= .150                 B-V= n.a.                   
                           ALBEDO= n.a.            STYP= n.a.                  
*******************************************************************************
 Date__(UT)__HR:MN     R.A._________(ICRF)_________DEC
******************************************************
$$SOE
 2018-Nov-11 16:11 C   00 54 22.796562 +19 25 55.00846
 2018-Nov-11 16:12 C   00 54 22.815347 +19 25 54.97866
 2018-Nov-11 16:13 C   00 54 22.834224 +19 25 54.94914
 2018-Nov-11 16:14 C   00 54 22.853193 +19 25 54.91991
 2018-Nov-11 16:15 C   00 54 22.872254 +19 25 54.89097
 2018-Nov-11 16:16 C   00 54 22.891407 +19 25 54.86232
 2018-Nov-11 16:17 C   00 54 22.910651 +19 25 54.83397
 2018-Nov-11 16:18 C   00 54 22.929986 +19 25 54.80592
